NORAD_CAT_ID,OBJECT_NAME,OBJECT_TYPE,EPOCH,MEAN_MOTION,ECCENTRICITY,INCLINATION,RA_OF_ASC_NODE,ARG_OF_PERICENTER,MEAN_ANOMALY,BSTAR,MEAN_MOTION_DOT,MEAN_MOTION_DDOT,TLE_LINE0,TLE_LINE1,TLE_LINE2,SEMIMAJOR_AXIS,PERIOD,APOGEE,PERIGEE,DECAYED
53262.0,STARLINK-4085,PAYLOAD,2023-11-14 14:12:36,15.08819586,0.0001596,53.2189,32.4003,68.9915,291.1248,-0.00017601,-3.087e-05,0.0,0 STARLINK-4085,1 53262U 22086W   23318.59208807 -.00003087  00000-0 -17601-3 0  9990,2 53262  53.2189  32.4003 0001596  68.9915 291.1248 15.08819586 73333,6917.943,95.439,540.912,538.704,0.0
53262.0,STARLINK-4085,PAYLOAD,2023-11-14 22:09:32,15.08814049,0.0001701,53.2196,30.9148,75.3507,284.7674,-0.00023189,-3.974e-05,0.0,0 STARLINK-4085,1 53262U 22086W   23318.92329695 -.00003974  00000-0 -23189-3 0  9999,2 53262  53.2196  30.9148 0001701  75.3507 284.7674 15.08814049 73386,6917.96,95.439,541.001,538.648,0.0
53262.0,STARLINK-4085,PAYLOAD,2023-11-15 10:52:37,15.08835127,0.0001541,53.2184,28.5361,79.3457,280.7709,-0.00031517,-5.3e-05,0.0,0 STARLINK-4085,1 53262U 22086W   23319.45321032 -.00005300  00000-0 -31517-3 0  9994,2 53262  53.2184  28.5361 0001541  79.3457 280.7709 15.08835127 73287,6917.895,95.438,540.826,538.694,0.0
53262.0,STARLINK-4085,PAYLOAD,2023-11-15 12:28:00,15.08836678,0.0001619,53.2189,28.2391,79.9117,280.2058,-0.0002904,-4.906e-05,0.0,0 STARLINK-4085,1 53262U 22086W   23319.51944884 -.00004906  00000-0 -29040-3 0  9996,2 53262  53.2189  28.2391 0001619  79.9117 280.2058 15.08836678 73472,6917.891,95.438,540.876,538.636,0.0
53262.0,STARLINK-4085,PAYLOAD,2023-11-15 22:00:18,15.0884901,0.0001688,53.2195,26.4551,80.1574,279.9609,-0.00020036,-3.476e-05,0.0,0 STARLINK-4085,1 53262U 22086W   23319.91687857 -.00003476  00000-0 -20036-3 0  9991,2 53262  53.2195  26.4551 0001688  80.1574 279.9609 15.08849010 73532,6917.853,95.437,540.886,538.55,0.0
53262.0,STARLINK-4085,PAYLOAD,2023-11-16 13:54:09,15.08843154,0.0001806,53.2187,23.4806,70.8817,289.2371,0.00047273,7.244e-05,0.0,0 STARLINK-4085,1 53262U 22086W   23320.57927764  .00007244  00000-0  47273-3 0  9996,2 53262  53.2187  23.4806 0001806  70.8817 289.2371 15.08843154 73635,6917.871,95.437,540.985,538.486,0.0
53262.0,STARLINK-4085,PAYLOAD,2023-11-16 21:51:06,15.08842121,0.0002201,53.2177,21.995,69.3215,290.8013,0.00051675,7.946e-05,0.0,0 STARLINK-4085,1 53262U 22086W   23320.91049091  .00007946  00000-0  51675-3 0  9992,2 53262  53.2177  21.9950 0002201  69.3215 290.8013 15.08842121 73681,6917.874,95.437,541.262,538.216,0.0
53262.0,STARLINK-4085,PAYLOAD,2023-11-17 13:44:56,15.08853356,0.0001926,53.2175,19.0192,76.2753,283.8453,0.00031706,4.763e-05,0.0,0 STARLINK-4085,1 53262U 22086W   23321.57288072  .00004763  00000-0  31706-3 0  9996,2 53262  53.2175  19.0192 0001926  76.2753 283.8453 15.08853356 73785,6917.84,95.437,541.037,538.372,0.0
53262.0,STARLINK-4085,PAYLOAD,2023-11-18 10:24:57,15.08854308,0.0001938,53.2194,15.1497,95.5911,264.5302,-6.0079e-05,-1.245e-05,0.0,0 STARLINK-4085,1 53262U 22086W   23322.43399722 -.00001245  00000-0 -60079-4 0  9997,2 53262  53.2194  15.1497 0001938  95.5911 264.5302 15.08854308 73736,6917.837,95.437,541.042,538.361,0.0
53262.0,STARLINK-4085,PAYLOAD,2023-11-19 10:15:44,15.08846828,0.0001867,53.2194,10.6952,78.2626,281.8575,7.6803e-06,-1.66e-06,0.0,0 STARLINK-4085,1 53262U 22086W   23323.42759633 -.00000166  00000-0  76803-5 0  9991,2 53262  53.2194  10.6952 0001867  78.2626 281.8575 15.08846828 73882,6917.86,95.437,541.016,538.433,0.0
53262.0,STARLINK-4085,PAYLOAD,2023-11-19 13:26:30,15.08848467,0.0001864,53.2193,10.0999,77.9841,282.136,1.9072e-05,1.5e-07,0.0,0 STARLINK-4085,1 53262U 22086W   23323.56007428  .00000015  00000-0  19072-4 0  9990,2 53262  53.2193  10.0999 0001864  77.9841 282.1360 15.08848467 74088,6917.855,95.437,541.009,538.43,0.0
53262.0,STARLINK-4085,PAYLOAD,2023-11-19 19:48:03,15.08845898,0.0001876,53.2187,8.9095,75.8805,284.2395,-4.1916e-05,-9.55e-06,0.0,0 STARLINK-4085,1 53262U 22086W   23323.82503583 -.00000955  00000-0 -41916-4 0  9999,2 53262  53.2187   8.9095 0001876  75.8805 284.2395 15.08845898 74125,6917.862,95.437,541.025,538.43,0.0
53262.0,STARLINK-4085,PAYLOAD,2023-11-20 03:44:59,15.08838888,0.0001845,53.2182,7.4232,76.6182,283.5016,1.4288e-05,-6.1e-07,0.0,0 STARLINK-4085,1 53262U 22086W   23324.15623986 -.00000061  00000-0  14288-4 0  9995,2 53262  53.2182   7.4232 0001845  76.6182 283.5016 15.08838888 73997,6917.884,95.438,541.025,538.472,0.0
53262.0,STARLINK-4085,PAYLOAD,2023-11-20 11:41:54,15.08847592,0.0001856,53.2184,5.9379,79.7349,280.3852,8.7528e-05,1.105e-05,0.0,0 STARLINK-4085,1 53262U 22086W   23324.48743268  .00001105  00000-0  87528-4 0  9993,2 53262  53.2184   5.9379 0001856  79.7349 280.3852 15.08847592 74227,6917.857,95.437,541.006,538.438,0.0
53262.0,STARLINK-4085,PAYLOAD,2023-11-21 11:32:41,15.08846842,0.0001869,53.2185,1.4777,86.4405,273.6801,8.3228e-05,1.037e-05,0.0,0 STARLINK-4085,1 53262U 22086W   23325.48103360  .00001037  00000-0  83228-4 0  9994,2 53262  53.2185   1.4777 0001869  86.4405 273.6801 15.08846842 74195,6917.859,95.437,541.017,538.432,0.0
53262.0,STARLINK-4085,PAYLOAD,2023-11-22 11:23:28,15.0884843,0.0001923,53.2181,357.0163,80.7455,279.3755,9.6874e-05,1.254e-05,0.0,0 STARLINK-4085,1 53262U 22086W   23326.47463309  .00001254  00000-0  96874-4 0  9998,2 53262  53.2181 357.0163 0001923  80.7455 279.3755 15.08848430 74526,6917.855,95.437,541.05,538.389,0.0
53262.0,STARLINK-4085,PAYLOAD,2023-11-23 11:14:15,15.08849022,0.0001895,53.2177,352.5548,87.4064,272.7145,6.4322e-05,7.36e-06,0.0,0 STARLINK-4085,1 53262U 22086W   23327.46823389  .00000736  00000-0  64322-4 0  9993,2 53262  53.2177 352.5548 0001895  87.4064 272.7145 15.08849022 74490,6917.853,95.437,541.029,538.407,0.0
53262.0,STARLINK-4085,PAYLOAD,2023-11-24 07:54:17,15.08832845,0.0001998,53.2192,348.6836,108.3583,251.7627,-9.9711e-05,-1.874e-05,0.0,0 STARLINK-4085,1 53262U 22086W   23328.32936511 -.00001874  00000-0 -99711-4 0  9997,2 53262  53.2192 348.6836 0001998 108.3583 251.7627 15.08832845 74628,6917.902,95.438,541.149,538.385,0.0
53262.0,STARLINK-4085,PAYLOAD,2023-11-25 01:23:31,15.08844021,0.0001895,53.2178,345.4188,107.7025,252.4174,0.00014648,2.044e-05,0.0,0 STARLINK-4085,1 53262U 22086W   23329.05800578  .00002044  00000-0  14648-3 0  9994,2 53262  53.2178 345.4188 0001895 107.7025 252.4174 15.08844021 74733,6917.868,95.437,541.044,538.422,0.0
53262.0,STARLINK-4085,PAYLOAD,2023-11-25 07:45:04,15.08853277,0.0001945,53.2181,344.2316,97.5592,262.5621,0.00031152,4.675e-05,0.0,0 STARLINK-4085,1 53262U 22086W   23329.32296303  .00004675  00000-0  31152-3 0  9990,2 53262  53.2181 344.2316 0001945  97.5592 262.5621 15.08853277 74954,6917.84,95.437,541.05,538.359,0.0
53262.0,STARLINK-4085,PAYLOAD,2023-11-25 23:38:55,15.088533,0.0001889,53.2165,341.2567,90.07,270.0509,0.00033428,5.038e-05,0.0,0 STARLINK-4085,1 53262U 22086W   23329.98536336  .00005038  00000-0  33428-3 0  9997,2 53262  53.2165 341.2567 0001889  90.0700 270.0509 15.08853300 74874,6917.84,95.437,541.012,538.398,0.0
53262.0,STARLINK-4085,PAYLOAD,2023-11-26 10:46:36,15.08858648,0.0001913,53.2163,339.1688,111.4379,248.6818,0.00033978,5.126e-05,0.0,0 STARLINK-4085,1 53262U 22086W   23330.44903447  .00005126  00000-0  33978-3 0  9999,2 53262  53.2163 339.1688 0001913 111.4379 248.6818 15.08858648 75123,6917.823,95.436,541.012,538.365,0.0
53262.0,STARLINK-4085,PAYLOAD,2023-11-27 04:15:53,15.08810699,0.0001937,53.2185,335.9071,85.1994,274.922,-0.00043424,-7.187e-05,0.0,0 STARLINK-4085,1 53262U 22086W   23331.17770399 -.00007187  00000-0 -43424-3 0  9996,2 53262  53.2185 335.9071 0001937  85.1994 274.9220 15.08810699 75058,6917.97,95.439,541.175,538.495,0.0
53262.0,STARLINK-4085,PAYLOAD,2023-11-27 05:51:16,15.08810039,0.0001954,53.218,335.6095,84.2668,275.8547,-0.00043325,-7.171e-05,0.0,0 STARLINK-4085,1 53262U 22086W   23331.24394532 -.00007171  00000-0 -43325-3 0  9998,2 53262  53.2180 335.6095 0001954  84.2668 275.8547 15.08810039 75244,6917.972,95.439,541.189,538.485,0.0
53262.0,STARLINK-4085,PAYLOAD,2023-11-28 00:55:53,15.08830109,0.0002203,53.2165,332.0316,113.259,246.8634,-4.8983e-05,-1.068e-05,0.0,0 STARLINK-4085,1 53262U 22086W   23332.03881913 -.00001068  00000-0 -48983-4 0  9995,2 53262  53.2165 332.0316 0002203 113.2590 246.8634 15.08830109 75187,6917.911,95.438,541.3,538.252,0.0
53262.0,STARLINK-4085,PAYLOAD,2023-11-28 07:17:25,15.08852205,0.0002017,53.2177,330.8486,95.3551,264.7672,0.00033095,4.985e-05,0.0,0 STARLINK-4085,1 53262U 22086W   23332.30377228  .00004985  00000-0  33095-3 0  9990,2 53262  53.2177 330.8486 0002017  95.3551 264.7672 15.08852205 75221,6917.843,95.437,541.103,538.313,0.0
53262.0,STARLINK-4085,PAYLOAD,2023-11-28 23:11:17,15.08848327,0.0002101,53.2181,327.8814,95.1859,264.9373,0.0005344,8.229e-05,0.0,0 STARLINK-4085,1 53262U 22086W   23332.96617947  .00008229  00000-0  53440-3 0  9998,2 53262  53.2181 327.8814 0002101  95.1859 264.9373 15.08848327 75501,6917.855,95.437,541.173,538.266,0.0
53262.0,STARLINK-4085,PAYLOAD,2023-11-29 03:57:27,15.08845398,0.0002075,53.2175,326.9819,108.3424,251.7794,0.00054451,8.39e-05,0.0,0 STARLINK-4085,1 53262U 22086W   23333.16489860  .00008390  00000-0  54451-3 0  9994,2 53262  53.2175 326.9819 0002075 108.3424 251.7794 15.08845398 75353,6917.864,95.437,541.164,538.293,0.0
53262.0,STARLINK-4085,PAYLOAD,2023-11-29 08:43:35,15.08860975,0.0002179,53.2176,326.0896,106.4514,253.6718,0.00059844,9.254e-05,0.0,0 STARLINK-4085,1 53262U 22086W   23333.36361093  .00009254  00000-0  59844-3 0  9994,2 53262  53.2176 326.0896 0002179 106.4514 253.6718 15.08860975 75382,6917.816,95.436,541.189,538.174,0.0
53262.0,STARLINK-4085,PAYLOAD,2023-11-30 03:48:13,15.08841456,0.0002496,53.2168,322.5197,124.287,235.8358,-0.00023173,-3.975e-05,0.0,0 STARLINK-4085,1 53262U 22086W   23334.15848999 -.00003975  00000-0 -23173-3 0  9999,2 53262  53.2168 322.5197 0002496 124.2870 235.8358 15.08841456 75502,6917.876,95.437,541.468,538.014,0.0
